OBJECT_NAME,OBJECT_ID,EPOCH,MEAN_MOTION,ECCENTRICITY,INCLINATION,RA_OF_ASC_NODE,ARG_OF_PERICENTER,MEAN_ANOMALY,EPHEMERIS_TYPE,CLASSIFICATION_TYPE,NORAD_CAT_ID,ELEMENT_SET_NO,REV_AT_EPOCH,BSTAR,MEAN_MOTION_DOT,MEAN_MOTION_DDOT
ZORKIY-2M-VPE,2025-313E,2026-07-20T18:56:53.479104,15.24659974,.0009181,97.3926,276.3430,217.7498,142.3097,0,U,67252,999,3109,.17034E-3,.414E-4,0
AIST-2T 1,2025-313F,2026-07-20T18:37:23.300832,15.60680797,.0004985,97.0813,279.3458,130.1261,230.0435,0,U,67253,999,3186,.27256E-3,.22525E-3,0
AIST-2T 2,2025-313G,2026-07-20T17:51:30.031776,15.60651728,.00035,97.0822,279.2355,102.4323,257.7327,0,U,67254,999,3184,.93397E-4,.7628E-4,0
2025-313H,2025-313H,2026-07-20T18:31:59.719872,15.07226908,.0067462,97.2846,267.9144,217.6049,142.0453,0,U,67255,999,3071,.60837E-4,.901E-5,0
SITRO-AIS-57,2025-313J,2026-07-20T17:04:27.372288,15.23640963,.0014159,97.3907,275.8037,240.0203,119.9629,0,U,67256,999,3105,.21366E-3,.5062E-4,0
SITRO-AIS-59,2025-313K,2026-07-20T17:11:35.073024,15.23556669,.0013926,97.3914,275.8149,242.5620,117.4201,0,U,67257,999,3105,.21107E-3,.4987E-4,0
SITRO-AIS-60,2025-313N,2026-07-20T04:31:20.269920,15.22519292,.00121363,97.3933,275.1786,243.4740,116.5253,0,U,67260,999,3096,.14946446E-3,.3401E-4,0
2025-313P,2025-313P,2026-07-20T18:19:15.536064,15.27340979,.0012391,97.3952,276.6184,234.0435,125.9655,0,U,67261,999,3110,.39574E-3,.10549E-3,0
2025-313Q,2025-313Q,2026-07-20T18:13:42.990240,15.24751627,.0013023,97.3918,276.0736,239.8156,120.1792,0,U,67262,999,3107,.25961E-3,.6373E-4,0
KOWSAR 1.5,2025-313S,2026-07-20T18:23:26.610144,15.22651495,.0013268,97.4008,275.9838,248.4176,111.5647,0,U,67264,999,3105,.1486E-3,.3395E-4,0
SITRO-AIS-65,2025-313U,2026-07-20T17:42:41.998176,15.23927223,.001289,97.3941,276.0180,240.2683,119.7272,0,U,67266,999,3106,.2183E-3,.5216E-4,0
2025-313V,2025-313V,2026-07-20T18:10:53.580576,15.24560714,.0012079,97.3918,276.0829,246.4792,113.5177,0,U,67267,999,3107,.25129E-3,.6129E-4,0
ZORKY-2M 7,2025-313W,2026-07-20T20:50:10.009824,15.22991191,.0013399,97.3930,275.9490,241.9642,118.0240,0,U,67268,999,3107,.18854E-3,.4371E-4,0
SITRO-TD-3,2025-313Y,2026-07-20T20:54:30.373632,15.23917713,.0012994,97.3925,276.0970,240.8653,119.1284,0,U,67270,999,3108,.25065E-3,.5998E-4,0
2025-313AD,2025-313AD,2026-07-20T03:21:26.129664,15.22993420,.00125388,97.3894,275.1633,248.8551,111.1346,0,U,67275,999,3096,.13899892E-3,.3203E-4,0
2025-313AF,2025-313AF,2026-07-20T17:37:30.324000,15.22959570,.0012175,97.3893,275.7359,245.5482,114.4486,0,U,67277,999,3105,.16052E-3,.3706E-4,0
2025-313AG,2025-313AG,2026-07-20T11:14:09.918240,15.22848861,.00129185,97.3882,275.4687,247.2288,112.7584,0,U,67278,999,3102,.14913392E-3,.3427E-4,0
GALAPAGOS-UTE-SWSU,2025-313AH,2026-07-20T17:08:28.962240,15.23204895,.0012582,97.3907,275.8035,241.5536,118.4434,0,U,67279,999,3105,.16535E-3,.3848E-4,0
2025-313AJ,2025-313AJ,2026-07-20T17:28:16.175136,15.22708562,.0011755,97.3980,275.9666,239.0743,120.9338,0,U,67280,999,3105,.12297E-3,.28E-4,0
2025-313AK,2025-313AK,2026-07-20T18:44:34.306368,15.22806398,.0010524,97.3864,275.7442,237.2963,122.7260,0,U,67281,999,3106,.1228E-3,.2804E-4,0
