ZORKIY-2M-VPE           
1 67252U 25313E   26201.78950786  .00004140  00000+0  17034-3 0  9993
2 67252  97.3926 276.3430 0009181 217.7498 142.3097 15.24659974 31093
AIST-2T 1               
1 67253U 25313F   26201.77596414  .00022525  00000+0  27256-3 0  9991
2 67253  97.0813 279.3458 0004985 130.1261 230.0435 15.60680797 31865
AIST-2T 2               
1 67254U 25313G   26201.74409760  .00007628  00000+0  93397-4 0  9993
2 67254  97.0822 279.2355 0003500 102.4323 257.7327 15.60651728 31840
2025-313H               
1 67255U 25313H   26201.77221899  .00000901  00000+0  60837-4 0  9992
2 67255  97.2846 267.9144 0067462 217.6049 142.0453 15.07226908 30710
SITRO-AIS-57            
1 67256U 25313J   26201.71142792  .00005062  00000+0  21366-3 0  9997
2 67256  97.3907 275.8037 0014158 240.0203 119.9629 15.23640964 31051
SITRO-AIS-59            
1 67257U 25313K   26201.71637816  .00004987  00000+0  21107-3 0  9992
2 67257  97.3914 275.8149 0013926 242.5620 117.4201 15.23556670 31055
SITRO-AIS-60            
1 67260U 25313N   26201.18842905  .00003401  00000+0  14946-3 0  9997
2 67260  97.3933 275.1786 0012136 243.4740 116.5253 15.22519292 30969
2025-313P               
1 67261U 25313P   26201.76337426  .00010549  00000+0  39574-3 0  9994
2 67261  97.3952 276.6184 0012390 234.0435 125.9655 15.27340979 31104
2025-313Q               
1 67262U 25313Q   26201.75952535  .00006373  00000+0  25961-3 0  9993
2 67262  97.3918 276.0736 0013023 239.8156 120.1792 15.24751627 31079
KOWSAR 1.5              
1 67264U 25313S   26201.76628021  .00003395  00000+0  14860-3 0  9993
2 67264  97.4008 275.9838 0013267 248.4176 111.5647 15.22651495 31052
SITRO-AIS-65            
1 67266U 25313U   26201.73798609  .00005216  00000+0  21830-3 0  9991
2 67266  97.3941 276.0180 0012890 240.2683 119.7272 15.23927223 31066
2025-313V               
1 67267U 25313V   26201.75756460  .00006129  00000+0  25129-3 0  9992
2 67267  97.3918 276.0829 0012078 246.4792 113.5177 15.24560714 31074
ZORKY-2M 7              
1 67268U 25313W   26201.86817142  .00004371  00000+0  18854-3 0  9994
2 67268  97.3930 275.9490 0013399 241.9642 118.0240 15.22991191 31078
SITRO-TD-3              
1 67270U 25313Y   26201.87118489  .00005998  00000+0  25065-3 0  9994
2 67270  97.3925 276.0970 0012993 240.8653 119.1284 15.23917713 31089
2025-313AD              
1 67275U 25313AD  26201.13988576  .00003203  00000+0  13900-3 0  9992
2 67275  97.3894 275.1633 0012538 248.8551 111.1346 15.22993420 30960
2025-313AF              
1 67277U 25313AF  26201.73437876  .00003706  00000+0  16052-3 0  9991
2 67277  97.3893 275.7359 0012174 245.5482 114.4486 15.22959570 31055
2025-313AG              
1 67278U 25313AG  26201.46817035  .00003427  00000+0  14913-3 0  9995
2 67278  97.3882 275.4687 0012918 247.2288 112.7584 15.22848861 31021
GALAPAGOS-UTE-SWSU      
1 67279U 25313AH  26201.71422410  .00003848  00000+0  16535-3 0  9992
2 67279  97.3907 275.8035 0012582 241.5536 118.4434 15.23204895 31055
2025-313AJ              
1 67280U 25313AJ  26201.72796499  .00002800  00000+0  12297-3 0  9994
2 67280  97.3980 275.9666 0011755 239.0743 120.9338 15.22708562 31052
2025-313AK              
1 67281U 25313AK  26201.78095262  .00002804  00000+0  12280-3 0  9997
2 67281  97.3864 275.7442 0010523 237.2963 122.7260 15.22806398 31061
